NORAD_CAT_ID,OBJECT_NAME,OBJECT_TYPE,EPOCH,MEAN_MOTION,ECCENTRICITY,INCLINATION,RA_OF_ASC_NODE,ARG_OF_PERICENTER,MEAN_ANOMALY,BSTAR,MEAN_MOTION_DOT,MEAN_MOTION_DDOT,TLE_LINE0,TLE_LINE1,TLE_LINE2,SEMIMAJOR_AXIS,PERIOD,APOGEE,PERIGEE,DECAYED
51976.0,STARLINK-3663,PAYLOAD,2022-10-16 17:41:45,15.0884314,0.0001631999999999,53.2163,205.4942,54.0559,306.0585,0.00013726,1.897e-05,0.0,0 STARLINK-3663,1 51976U 22025W   22289.73733505  .00001897  00000-0  13726-3 0  9992,2 51976  53.2163 205.4942 0001632  54.0559 306.0585 15.08843140 33878,6917.871,95.437,540.865,538.607,0.0
51976.0,STARLINK-3663,PAYLOAD,2022-10-17 11:11:00,15.08838037,0.000193,53.2163,202.2236,56.5008,303.6168,-3.2211e-05,-8.01e-06,0.0,0 STARLINK-3663,1 51976U 22025W   22290.46597670 -.00000801  00000-0 -32211-4 0  9992,2 51976  53.2163 202.2236 0001930  56.5008 303.6168 15.08838037 35091,6917.886,95.438,541.087,538.4159999999998,0.0
51976.0,STARLINK-3663,PAYLOAD,2022-10-18 11:01:47,15.08833982,0.0001858,53.2172,197.7634,56.2177,303.8992,7.3016e-06,-1.72e-06,0.0,0 STARLINK-3663,1 51976U 22025W   22291.45958207 -.00000172  00000-0  73016-5 0  9998,2 51976  53.2172 197.7634 0001858  56.2177 303.8992 15.08833982 34139,6917.899,95.438,541.049,538.4780000000002,0.0
51976.0,STARLINK-3663,PAYLOAD,2022-10-18 18:58:43,15.08837335,0.0001899,53.2176,196.2769,55.1766,304.9405,5.3718e-05,5.67e-06,0.0,0 STARLINK-3663,1 51976U 22025W   22291.79078473  .00000567  00000-0  53718-4 0  9996,2 51976  53.2176 196.2769 0001899  55.1766 304.9405 15.08837335 35298,6917.889,95.438,541.067,538.44,0.0
51976.0,STARLINK-3663,PAYLOAD,2022-10-19 10:52:35,15.08836946,0.0001962,53.2178,193.3034,58.2157,301.9026,0.00017218,2.453e-05,0.0,0 STARLINK-3663,1 51976U 22025W   22292.45318446  .00002453  00000-0  17218-3 0  9997,2 51976  53.2178 193.3034 0001962  58.2157 301.9026 15.08836946 34283,6917.89,95.438,541.112,538.3969999999998,0.0
51976.0,STARLINK-3663,PAYLOAD,2022-10-19 20:24:51,15.08892827,0.0002365,53.2176,191.5193,57.458,302.664,-0.00073154,-0.00011929,0.0,0 STARLINK-3663,1 51976U 22025W   22292.85060117 -.00011929  00000-0 -73154-3 0  9991,2 51976  53.2176 191.5193 0002365  57.4580 302.6640 15.08892827 35456,6917.719,95.434,541.22,537.948,0.0
51976.0,STARLINK-3663,PAYLOAD,2022-10-19 22:00:16,15.08856493,0.0002014,53.2177,191.222,60.1453,299.9739,-0.00010454,-1.952e-05,0.0,0 STARLINK-3663,1 51976U 22025W   22292.91685496 -.00001952  00000-0 -10454-3 0  9990,2 51976  53.2177 191.2220 0002014  60.1453 299.9739 15.08856493 34350,6917.83,95.437,541.0880000000002,538.302,0.0
51976.0,STARLINK-3663,PAYLOAD,2022-10-20 01:11:03,15.08843888,0.0001906999999999,53.2177,190.6274,57.5949,302.5228,0.00016458,2.332e-05,0.0,0 STARLINK-3663,1 51976U 22025W   22293.04934062  .00002332  00000-0  16458-3 0  9992,2 51976  53.2177 190.6274 0001907  57.5949 302.5228 15.08843888 35485,6917.869000000002,95.437,541.053,538.414,0.0
51976.0,STARLINK-3663,PAYLOAD,2022-10-20 10:43:21,15.08842731,0.0001924,53.2168,188.843,57.091,303.0267,0.00014587,2.034e-05,0.0,0 STARLINK-3663,1 51976U 22025W   22293.44678207  .00002034  00000-0  14587-3 0  9992,2 51976  53.2168 188.8430 0001924  57.0910 303.0267 15.08842731 34439,6917.871999999999,95.437,541.068,538.406,0.0
51976.0,STARLINK-3663,PAYLOAD,2022-10-20 20:15:40,15.088435999999998,0.0001747,53.2165,187.0581,56.4387,303.6772,0.00018379,2.638e-05,0.0,0 STARLINK-3663,1 51976U 22025W   22293.84422068  .00002638  00000-0  18379-3 0  9991,2 51976  53.2165 187.0581 0001747  56.4387 303.6772 15.08843600 34497,6917.869000000002,95.437,540.943,538.526,0.0
51976.0,STARLINK-3663,PAYLOAD,2022-10-21 01:01:50,15.08835571,0.0001668,53.217,186.1662,55.139,304.9759,3.8576e-06,-2.27e-06,0.0,0 STARLINK-3663,1 51976U 22025W   22294.04294718 -.00000227  00000-0  38576-5 0  9999,2 51976  53.2170 186.1662 0001668  55.1390 304.9759 15.08835571 34526,6917.894,95.438,540.913,538.605,0.0
51976.0,STARLINK-3663,PAYLOAD,2022-10-21 16:55:41,15.08844699,0.0001736,53.2174,183.1935,52.2779,307.837,9.1391e-05,1.167e-05,0.0,0 STARLINK-3663,1 51976U 22025W   22294.70533826  .00001167  00000-0  91391-4 0  9994,2 51976  53.2174 183.1935 0001736  52.2779 307.8370 15.08844699 34628,6917.866,95.437,540.932,538.53,0.0
51976.0,STARLINK-3663,PAYLOAD,2022-10-22 02:28:00,15.08840318,0.000166,53.2171,181.4084,53.6702,306.4443,1.601e-05,-3.3e-07,0.0,0 STARLINK-3663,1 51976U 22025W   22295.10278314 -.00000033  00000-0  16010-4 0  9994,2 51976  53.2171 181.4084 0001660  53.6702 306.4443 15.08840318 35797,6917.879,95.438,540.893,538.596,0.0
51976.0,STARLINK-3663,PAYLOAD,2022-10-22 19:57:14,15.08844821,0.0001814,53.2171,178.1375,55.2676,304.8486,-1.1592e-05,-4.73e-06,0.0,0 STARLINK-3663,1 51976U 22025W   22295.83142098 -.00000473  00000-0 -11592-4 0  9992,2 51976  53.2171 178.1375 0001814  55.2676 304.8486 15.08844821 34793,6917.866,95.437,540.986,538.476,0.0
51976.0,STARLINK-3663,PAYLOAD,2022-10-23 08:40:19,15.08842828,0.0001676999999999,53.2171,175.7589,51.8779,308.2365,0.00013607,1.878e-05,0.0,0 STARLINK-3663,1 51976U 22025W   22296.36133999  .00001878  00000-0  13607-3 0  9997,2 51976  53.2171 175.7589 0001677  51.8779 308.2365 15.08842828 34874,6917.871999999999,95.437,540.8969999999998,538.577,0.0
51976.0,STARLINK-3663,PAYLOAD,2022-10-23 16:37:14,15.08851914,0.0001713,53.2166,174.2726,53.2981,306.8168,0.00021913,3.202e-05,0.0,0 STARLINK-3663,1 51976U 22025W   22296.69253368  .00003202  00000-0  21913-3 0  9998,2 51976  53.2166 174.2726 0001713  53.2981 306.8168 15.08851914 36038,6917.844,95.437,540.894,538.524,0.0
51976.0,STARLINK-3663,PAYLOAD,2022-10-24 00:34:10,15.08847609,0.0001726,53.2167,172.7859,52.9996,307.1154,0.00012728,1.739e-05,0.0,0 STARLINK-3663,1 51976U 22025W   22297.02373437  .00001739  00000-0  12728-3 0  9993,2 51976  53.2167 172.7859 0001726  52.9996 307.1154 15.08847609 34971,6917.857,95.437,540.9159999999998,538.528,0.0
51976.0,STARLINK-3663,PAYLOAD,2022-10-25 00:24:59,15.08822723,0.000181,53.2168,168.326,54.4767,305.6394,-0.00024278,-4.148e-05,0.0,0 STARLINK-3663,1 51976U 22025W   22298.01735009 -.00004148  00000-0 -24278-3 0  9992,2 51976  53.2168 168.3260 0001810  54.4767 305.6394 15.08822723 36236,6917.933000000001,95.439,541.05,538.5459999999998,0.0
51976.0,STARLINK-3663,PAYLOAD,2022-10-25 08:21:55,15.08822841,0.0001709,53.2169,166.84,56.4706,303.6449,-8.314200000000001e-05,-1.6100000000000002e-05,0.0,0 STARLINK-3663,1 51976U 22025W   22298.34856054 -.00001610  00000-0 -83142-4 0  9999,2 51976  53.2169 166.8400 0001709  56.4706 303.6449 15.08822841 35170,6917.933000000001,95.439,540.98,538.616,0.0
51976.0,STARLINK-3663,PAYLOAD,2022-10-25 19:29:37,15.08827758,0.0001781999999999,53.2172,164.7583,55.0649,305.051,-5.2466e-05,-1.123e-05,0.0,0 STARLINK-3663,1 51976U 22025W   22298.81223943 -.00001123  00000-0 -52466-4 0  9990,2 51976  53.2172 164.7583 0001782  55.0649 305.0510 15.08827758 35240,6917.918000000002,95.438,541.016,538.55,0.0
51976.0,STARLINK-3663,PAYLOAD,2022-10-25 22:40:23,15.08828173,0.0001776,53.2171,164.1637,56.1481,303.968,-4.8838e-05,-1.065e-05,0.0,0 STARLINK-3663,1 51976U 22025W   22298.94472000 -.00001065  00000-0 -48838-4 0  9997,2 51976  53.2171 164.1637 0001776  56.1481 303.9680 15.08828173 36374,6917.917,95.438,541.01,538.553,0.0
51976.0,STARLINK-3663,PAYLOAD,2022-10-26 08:12:42,15.08828545,0.0001809,53.2171,162.379,55.1244,304.9918,3.2767e-05,2.33e-06,0.0,0 STARLINK-3663,1 51976U 22025W   22299.34216049  .00000233  00000-0  32767-4 0  9999,2 51976  53.2171 162.3790 0001809  55.1244 304.9918 15.08828545 35329,6917.915,95.438,541.0319999999998,538.529,0.0
51976.0,STARLINK-3663,PAYLOAD,2022-10-26 20:55:47,15.08827055,0.0001855,53.2171,159.9996,56.6665,303.4505,0.00017487,2.495e-05,0.0,0 STARLINK-3663,1 51976U 22025W   22299.87208172  .00002495  00000-0  17487-3 0  9998,2 51976  53.2171 159.9996 0001855  56.6665 303.4505 15.08827055 35403,6917.92,95.438,541.068,538.502,0.0
51976.0,STARLINK-3663,PAYLOAD,2022-10-27 08:03:29,15.08835708,0.0001893,53.2171,157.918,57.1933,302.9242,0.00021546,3.142e-05,0.0,0 STARLINK-3663,1 51976U 22025W   22300.33575892  .00003142  00000-0  21546-3 0  9999,2 51976  53.2171 157.9180 0001893  57.1933 302.9242 15.08835708 36588,6917.894,95.438,541.068,538.4490000000002,0.0
51976.0,STARLINK-3663,PAYLOAD,2022-10-27 20:46:34,15.08846271,0.0001908,53.2171,155.5391,57.7341,302.3836,0.0002258,3.308e-05,0.0,0 STARLINK-3663,1 51976U 22025W   22300.86567268  .00003308  00000-0  22580-3 0  9998,2 51976  53.2171 155.5391 0001908  57.7341 302.3836 15.08846271 35558,6917.861,95.437,541.0459999999998,538.406,0.0
51976.0,STARLINK-3663,PAYLOAD,2022-10-27 22:21:57,15.08848898,0.0001923,53.2171,155.2418,57.7199,302.3979,0.00022864,3.353e-05,0.0,0 STARLINK-3663,1 51976U 22025W   22300.93191117  .00003353  00000-0  22864-3 0  9997,2 51976  53.2171 155.2418 0001923  57.7199 302.3979 15.08848898 36672,6917.853,95.437,541.048,538.388,0.0
51976.0,STARLINK-3663,PAYLOAD,2022-10-28 07:54:15,15.0885739,0.0001936,53.2171,153.4576,58.221,301.897,0.00025155,3.719e-05,0.0,0 STARLINK-3663,1 51976U 22025W   22301.32934347  .00003719  00000-0  25155-3 0  9993,2 51976  53.2171 153.4576 0001936  58.2210 301.8970 15.08857390 35627,6917.8269999999975,95.436,541.0319999999998,538.3530000000002,0.0
51976.0,STARLINK-3663,PAYLOAD,2022-10-28 19:01:57,15.08848965,0.000196,53.2171,151.3763,59.7904,300.3282,0.00011401,1.527e-05,0.0,0 STARLINK-3663,1 51976U 22025W   22301.79302968  .00001527  00000-0  11401-3 0  9996,2 51976  53.2171 151.3763 0001960  59.7904 300.3282 15.08848965 35690,6917.853,95.437,541.0740000000002,538.362,0.0
51976.0,STARLINK-3663,PAYLOAD,2022-10-28 20:37:21,15.08846503,0.0001945,53.2171,151.0791,59.2045,300.9139,7.123e-05,8.46e-06,0.0,0 STARLINK-3663,1 51976U 22025W   22301.85927156  .00000846  00000-0  71230-4 0  9995,2 51976  53.2171 151.0791 0001945  59.2045 300.9139 15.08846503 36810,6917.861,95.437,541.071,538.38,0.0
